{"fetched_at":"2026-07-11T06:35:06.838Z","source":"https://celestrak.org/NORAD/elements/gp.php?GROUP=oneweb&FORMAT=JSON","constellation":"oneweb","records":[{"OBJECT_NAME":"ONEWEB-0349","OBJECT_ID":"2021-090C","EPOCH":"2026-07-10T04:22:27.649344","CLASSIFICATION_TYPE":"U","MEAN_MOTION":13.20772273,"ECCENTRICITY":0.00020855,"INCLINATION":87.919,"RA_OF_ASC_NODE":269.8597,"ARG_OF_PERICENTER":98.822,"MEAN_ANOMALY":261.3149,"EPHEMERIS_TYPE":0,"NORAD_CAT_ID":49281,"ELEMENT_SET_NO":999,"REV_AT_EPOCH":23286,"BSTAR":-0.00032850048,"MEAN_MOTION_DOT":-0.00000121,"MEAN_MOTION_DDOT":0},{"OBJECT_NAME":"ONEWEB-0353","OBJECT_ID":"2021-090D","EPOCH":"2026-07-08T19:52:32.818368","CLASSIFICATION_TYPE":"U","MEAN_MOTION":13.14502022,"ECCENTRICITY":0.00018937,"INCLINATION":87.8973,"RA_OF_ASC_NODE":285.3932,"ARG_OF_PERICENTER":106.9835,"MEAN_ANOMALY":253.1502,"EPHEMERIS_TYPE":0,"NORAD_CAT_ID":49282,"ELEMENT_SET_NO":999,"REV_AT_EPOCH":23042,"BSTAR":-0.00068671175,"MEAN_MOTION_DOT":-0.00000242,"MEAN_MOTION_DDOT":0},{"OBJECT_NAME":"ONEWEB-0356","OBJECT_ID":"2021-090E","EPOCH":"2026-07-10T04:20:03.126336","CLASSIFICATION_TYPE":"U","MEAN_MOTION":13.20769932,"ECCENTRICITY":0.00013569,"INCLINATION":87.9189,"RA_OF_ASC_NODE":269.8533,"ARG_OF_PERICENTER":86.9392,"MEAN_ANOMALY":273.1897,"EPHEMERIS_TYPE":0,"NORAD_CAT_ID":49283,"ELEMENT_SET_NO":999,"REV_AT_EPOCH":23286,"BSTAR":0.00011005031,"MEAN_MOTION_DOT":5.8e-7,"MEAN_MOTION_DDOT":0},{"OBJECT_NAME":"ONEWEB-0358","OBJECT_ID":"2021-090F","EPOCH":"2026-07-10T12:28:24.053376","CLASSIFICATION_TYPE":"U","MEAN_MOTION":13.20765356,"ECCENTRICITY":0.0002562,"INCLINATION":87.919,"RA_OF_ASC_NODE":269.7877,"ARG_OF_PERICENTER":93.2228,"MEAN_ANOMALY":266.9198,"EPHEMERIS_TYPE":0,"NORAD_CAT_ID":49284,"ELEMENT_SET_NO":999,"REV_AT_EPOCH":23363,"BSTAR":-0.017985,"MEAN_MOTION_DOT":-0.00007293,"MEAN_MOTION_DDOT":0},{"OBJECT_NAME":"ONEWEB-0359","OBJECT_ID":"2021-090G","EPOCH":"2026-07-09T05:20:39.578784","CLASSIFICATION_TYPE":"U","MEAN_MOTION":13.20769954,"ECCENTRICITY":0.00021683,"INCLINATION":87.9188,"RA_OF_ASC_NODE":270.0439,"ARG_OF_PERICENTER":92.1989,"MEAN_ANOMALY":267.9393,"EPHEMERIS_TYPE":0,"NORAD_CAT_ID":49285,"ELEMENT_SET_NO":999,"REV_AT_EPOCH":23344,"BSTAR":-0.000075702872,"MEAN_MOTION_DOT":-1.8e-7,"MEAN_MOTION_DDOT":0},{"OBJECT_NAME":"ONEWEB-0360","OBJECT_ID":"2021-090H","EPOCH":"2026-07-08T18:11:36.552480","CLASSIFICATION_TYPE":"U","MEAN_MOTION":13.20770742,"ECCENTRICITY":0.00021785,"INCLINATION":87.919,"RA_OF_ASC_NODE":270.1426,"ARG_OF_PERICENTER":99.9887,"MEAN_ANOMALY":260.1492,"EPHEMERIS_TYPE":0,"NORAD_CAT_ID":49286,"ELEMENT_SET_NO":999,"REV_AT_EPOCH":23269,"BSTAR":-0.00014630911,"MEAN_MOTION_DOT":-4.6e-7,"MEAN_MOTION_DDOT":0},{"OBJECT_NAME":"ONEWEB-0361","OBJECT_ID":"2021-090J","EPOCH":"2026-07-10T04:17:37.963104","CLASSIFICATION_TYPE":"U","MEAN_MOTION":13.20772362,"ECCENTRICITY":0.00020553,"INCLINATION":87.9189,"RA_OF_ASC_NODE":269.8581,"ARG_OF_PERICENTER":94.9176,"MEAN_ANOMALY":265.2192,"EPHEMERIS_TYPE":0,"NORAD_CAT_ID":49287,"ELEMENT_SET_NO":999,"REV_AT_EPOCH":23333,"BSTAR":0.000084425829,"MEAN_MOTION_DOT":4.7e-7,"MEAN_MOTION_DDOT":0},{"OBJECT_NAME":"ONEWEB-0362","OBJECT_ID":"2021-090K","EPOCH":"2026-07-09T05:45:29.062080","CLASSIFICATION_TYPE":"U","MEAN_MOTION":13.19725966,"ECCENTRICITY":0.00023205,"INCLINATION":87.9189,"RA_OF_ASC_NODE":300.5845,"ARG_OF_PERICENTER":107.0306,"MEAN_ANOMALY":253.1082,"EPHEMERIS_TYPE":0,"NORAD_CAT_ID":49288,"ELEMENT_SET_NO":999,"REV_AT_EPOCH":22982,"BSTAR":0.000082208699,"MEAN_MOTION_DOT":4.6e-7,"MEAN_MOTION_DDOT":0},{"OBJECT_NAME":"ONEWEB-0363","OBJECT_ID":"2021-090L","EPOCH":"2026-07-09T05:01:17.465952","CLASSIFICATION_TYPE":"U","MEAN_MOTION":13.20772061,"ECCENTRICITY":0.00017674,"INCLINATION":87.9191,"RA_OF_ASC_NODE":270.0512,"ARG_OF_PERICENTER":94.3466,"MEAN_ANOMALY":265.7869,"EPHEMERIS_TYPE":0,"NORAD_CAT_ID":49289,"ELEMENT_SET_NO":999,"REV_AT_EPOCH":23321,"BSTAR":-0.000052187496,"MEAN_MOTION_DOT":-8e-8,"MEAN_MOTION_DDOT":0},{"OBJECT_NAME":"ONEWEB-0364","OBJECT_ID":"2021-090M","EPOCH":"2026-07-10T03:46:06.295584","CLASSIFICATION_TYPE":"U","MEAN_MOTION":13.20770141,"ECCENTRICITY":0.00021145,"INCLINATION":87.9189,"RA_OF_ASC_NODE":269.8699,"ARG_OF_PERICENTER":99.3429,"MEAN_ANOMALY":260.7944,"EPHEMERIS_TYPE":0,"NORAD_CAT_ID":49290,"ELEMENT_SET_NO":999,"REV_AT_EPOCH":23447,"BSTAR":0.000087326184,"MEAN_MOTION_DOT":4.8e-7,"MEAN_MOTION_DDOT":0},{"OBJECT_NAME":"ONEWEB-0365","OBJECT_ID":"2021-090N","EPOCH":"2026-07-10T07:27:35.953056","CLASSIFICATION_TYPE":"U","MEAN_MOTION":13.19716591,"ECCENTRICITY":0.00017661,"INCLINATION":87.9186,"RA_OF_ASC_NODE":300.3667,"ARG_OF_PERICENTER":128.4104,"MEAN_ANOMALY":231.7188,"EPHEMERIS_TYPE":0,"NORAD_CAT_ID":49291,"ELEMENT_SET_NO":999,"REV_AT_EPOCH":22947,"BSTAR":0.0037615541,"MEAN_MOTION_DOT":0.00001519,"MEAN_MOTION_DDOT":0},{"OBJECT_NAME":"ONEWEB-0366","OBJECT_ID":"2021-090P","EPOCH":"2026-07-10T04:40:57.629280","CLASSIFICATION_TYPE":"U","MEAN_MOTION":13.14501825,"ECCENTRICITY":0.00020388,"INCLINATION":87.8975,"RA_OF_ASC_NODE":285.1218,"ARG_OF_PERICENTER":100.5575,"MEAN_ANOMALY":259.5784,"EPHEMERIS_TYPE":0,"NORAD_CAT_ID":49292,"ELEMENT_SET_NO":999,"REV_AT_EPOCH":23058,"BSTAR":-0.00004049754,"MEAN_MOTION_DOT":-2e-8,"MEAN_MOTION_DDOT":0},{"OBJECT_NAME":"ONEWEB-0367","OBJECT_ID":"2021-090Q","EPOCH":"2026-07-10T04:38:14.659872","CLASSIFICATION_TYPE":"U","MEAN_MOTION":13.207731,"ECCENTRICITY":0.00022016,"INCLINATION":87.9189,"RA_OF_ASC_NODE":269.8569,"ARG_OF_PERICENTER":103.0976,"MEAN_ANOMALY":257.0403,"EPHEMERIS_TYPE":0,"NORAD_CAT_ID":49293,"ELEMENT_SET_NO":999,"REV_AT_EPOCH":23286,"BSTAR":0.000040654236,"MEAN_MOTION_DOT":3e-7,"MEAN_MOTION_DDOT":0},{"OBJECT_NAME":"ONEWEB-0368","OBJECT_ID":"2021-090R","EPOCH":"2026-07-10T04:00:40.813920","CLASSIFICATION_TYPE":"U","MEAN_MOTION":13.20771517,"ECCENTRICITY":0.00014744,"INCLINATION":87.9178,"RA_OF_ASC_NODE":269.8701,"ARG_OF_PERICENTER":113.5797,"MEAN_ANOMALY":246.5492,"EPHEMERIS_TYPE":0,"NORAD_CAT_ID":49294,"ELEMENT_SET_NO":999,"REV_AT_EPOCH":23401,"BSTAR":0.00012464633,"MEAN_MOTION_DOT":6.4e-7,"MEAN_MOTION_DDOT":0},{"OBJECT_NAME":"ONEWEB-0369","OBJECT_ID":"2021-090S","EPOCH":"2026-07-10T16:26:39.201216","CLASSIFICATION_TYPE":"U","MEAN_MOTION":13.19726389,"ECCENTRICITY":0.0001951,"INCLINATION":87.9181,"RA_OF_ASC_NODE":300.2941,"ARG_OF_PERICENTER":101.8234,"MEAN_ANOMALY":258.3117,"EPHEMERIS_TYPE":0,"NORAD_CAT_ID":49295,"ELEMENT_SET_NO":999,"REV_AT_EPOCH":22951,"BSTAR":-0.000099222,"MEAN_MOTION_DOT":-2.7e-7,"MEAN_MOTION_DDOT":0},{"OBJECT_NAME":"ONEWEB-0370","OBJECT_ID":"2021-090T","EPOCH":"2026-07-10T04:51:34.927776","CLASSIFICATION_TYPE":"U","MEAN_MOTION":13.20771624,"ECCENTRICITY":0.00023022,"INCLINATION":87.9188,"RA_OF_ASC_NODE":269.8551,"ARG_OF_PERICENTER":97.7685,"MEAN_ANOMALY":262.3709,"EPHEMERIS_TYPE":0,"NORAD_CAT_ID":49296,"ELEMENT_SET_NO":999,"REV_AT_EPOCH":23290,"BSTAR":-0.00006422788,"MEAN_MOTION_DOT":-1.3e-7,"MEAN_MOTION_DDOT":0}]}
