ONEWEB-0349             
1 49281U 21090C   26191.18226446 -.00000121  00000+0 -32850-3 0  9994
2 49281  87.9190 269.8597 0002085  98.8220 261.3149 13.20772273232861
ONEWEB-0353             
1 49282U 21090D   26189.82815762 -.00000242  00000+0 -68671-3 0  9992
2 49282  87.8973 285.3932 0001893 106.9835 253.1502 13.14502022230423
ONEWEB-0356             
1 49283U 21090E   26191.18059174  .00000058  00000+0  11005-3 0  9994
2 49283  87.9189 269.8533 0001356  86.9392 273.1897 13.20769932232868
ONEWEB-0358             
1 49284U 21090F   26191.51972284 -.00007293  00000+0 -17985-1 0  9999
2 49284  87.9190 269.7877 0002562  93.2228 266.9198 13.20765356233636
ONEWEB-0359             
1 49285U 21090G   26190.22268031 -.00000018  00000+0 -75703-4 0  9998
2 49285  87.9188 270.0439 0002168  92.1989 267.9393 13.20769954233442
ONEWEB-0360             
1 49286U 21090H   26189.75806195 -.00000046  00000+0 -14631-3 0  9997
2 49286  87.9190 270.1426 0002178  99.9887 260.1492 13.20770742232694
ONEWEB-0361             
1 49287U 21090J   26191.17891161  .00000047  00000+0  84426-4 0  9993
2 49287  87.9189 269.8581 0002055  94.9176 265.2192 13.20772362233335
ONEWEB-0362             
1 49288U 21090K   26190.23991970  .00000046  00000+0  82209-4 0  9995
2 49288  87.9189 300.5845 0002320 107.0306 253.1082 13.19725966229827
ONEWEB-0363             
1 49289U 21090L   26190.20922993 -.00000008  00000+0 -52187-4 0  9994
2 49289  87.9191 270.0512 0001767  94.3466 265.7869 13.20772061233212
ONEWEB-0364             
1 49290U 21090M   26191.15701731  .00000048  00000+0  87326-4 0  9991
2 49290  87.9189 269.8699 0002114  99.3429 260.7944 13.20770141234479
ONEWEB-0365             
1 49291U 21090N   26191.31083279  .00001519  00000+0  37616-2 0  9999
2 49291  87.9186 300.3667 0001766 128.4104 231.7188 13.19716591229478
ONEWEB-0366             
1 49292U 21090P   26191.19511145 -.00000002  00000+0 -40498-4 0  9996
2 49292  87.8975 285.1218 0002038 100.5575 259.5784 13.14501825230583
ONEWEB-0367             
1 49293U 21090Q   26191.19322523  .00000030  00000+0  40654-4 0  9990
2 49293  87.9189 269.8569 0002201 103.0976 257.0403 13.20773100232863
ONEWEB-0368             
1 49294U 21090R   26191.16713905  .00000064  00000+0  12465-3 0  9991
2 49294  87.9178 269.8701 0001474 113.5797 246.5492 13.20771517234018
ONEWEB-0369             
1 49295U 21090S   26191.68517594 -.00000027  00000+0 -99222-4 0  9993
2 49295  87.9181 300.2941 0001951 101.8234 258.3117 13.19726389229514
ONEWEB-0370             
1 49296U 21090T   26191.20248759 -.00000013  00000+0 -64228-4 0  9999
2 49296  87.9188 269.8551 0002302  97.7685 262.3709 13.20771624232906
